ORBCOMM FM103           
1 40091U 14040F   25344.74244703  .00001166  00000+0  28483-3 0  9993
2 40091  47.0054 263.8028 0001929 349.9574  10.1273 14.58529237589874
ORBCOMM FM114           
1 41179U 15081A   25344.55376302  .00001022  00000+0  25402-3 0  9996
2 41179  47.0004 173.6488 0001550  77.2877 282.8182 14.58559526530217
ORBCOMM FM119           
1 41180U 15081B   25344.68673192  .00001280  00000+0  30916-3 0  9991
2 41180  47.0007  82.3797 0001003 188.3579 171.7290 14.58496213531486
ORBCOMM FM105           
1 41181U 15081C   25344.71135132  .00000613  00000+0  21700-3 0  9993
2 41181  47.0008 104.4545 0001227  13.6606 346.4307 14.45401469526281
ORBCOMM FM110           
1 41182U 15081D   25344.81776130  .00001244  00000+0  30114-3 0  9994
2 41182  47.0000 171.9067 0002784 280.5848  79.4724 14.58573337530126
ORBCOMM FM118           
1 41183U 15081E   25344.71522330  .00000900  00000+0  22794-3 0  9998
2 41183  47.0022 172.6881 0003131 244.2327 115.8236 14.58567949530214
ORBCOMM FM112           
1 41184U 15081F   25344.71793007  .00001261  00000+0  30474-3 0  9995
2 41184  46.9994  81.2117 0000757  55.1830 304.9127 14.58571267531430
ORBCOMM FM113           
1 41185U 15081G   25344.69517740  .00001523  00000+0  36052-3 0  9990
2 41185  47.0010  81.6743 0000457  84.8132 275.2806 14.58565598531414
